NOAA 5 [-]              
1 09057U 76077A   17346.48062845 -.00000019  00000-0  18747-3 0  9997
2 09057 101.8522 322.8301 0009893 317.9924 203.9356 12.37761389870061
